[ {"name": "STARLINK-37666", "line1": "1 69046U 26101X   26133.83335647 -.01845937  00000+0 -84013-2 0  9995", "line2": "2 69046  97.2887 348.0286 0001281  90.6847 233.1789 15.86950256  2445"}]