{
  "norad_id": 69046,
  "name": "STARLINK-37666",
  "history": [
    {
      "epoch": "2026-05-13T20:00:01.999008Z",
      "apogee_km": 311.6957725678758,
      "perigee_km": 309.9820569385165,
      "latitude_deg": -36.09214809171772,
      "longitude_deg": -178.2477077829889,
      "height_km": 325.1778405337035,
      "semi_major_axis_km": 6688.975914753196,
      "eccentricity": 0.0001281,
      "inclination_deg": 97.2887,
      "raan_deg": 348.0286,
      "arg_perigee_deg": 90.6847,
      "mean_anomaly_deg": 233.1789,
      "mean_motion_rev_day": 15.86950256
    }
  ]
}